SILVERSAT               
1 66909U 98067XV  26036.75451151  .00151238  00000+0  16535-2 0  9997
2 66909  51.6266 227.1587 0002636 214.5561 145.5262 15.62300925 10189
1998-067XW              
1 66910U 98067XW  26036.89538243  .00120903  00000+0  13943-2 0  9997
2 66910  51.6260 226.5943 0000961 217.3014 142.7913 15.61042610 10205
1998-067XX              
1 66911U 98067XX  26036.79086197  .00166621  00000+0  17371-2 0  9999
2 66911  51.6254 226.6457 0002448 245.3472 114.7268 15.63462048 10183
1998-067XY              
1 66912U 98067XY  26036.76064784  .00091548  00000+0  11778-2 0  9995
2 66912  51.6276 227.9509 0001495 152.5186 207.5886 15.58296587 10164
