CCSDS_OMM_VERS = 2.0
CREATION_DATE  = 
ORIGINATOR     = 

OBJECT_NAME    = SILVERSAT
OBJECT_ID      = 1998-067XV
CENTER_NAME    = EARTH
REF_FRAME      = TEME
TIME_SYSTEM    = UTC
MEAN_ELEMENT_THEORY = SGP/SGP4

EPOCH          = 2026-02-05T18:06:29.794464
MEAN_MOTION    = 15.62300925
ECCENTRICITY   = .00026361
INCLINATION    = 51.6266
RA_OF_ASC_NODE = 227.1587
ARG_OF_PERICENTER = 214.5561
MEAN_ANOMALY   = 145.5262

EPHEMERIS_TYPE = 0
CLASSIFICATION_TYPE = U
NORAD_CAT_ID   = 66909
ELEMENT_SET_NO = 999
REV_AT_EPOCH   = 1018
BSTAR          = .16534968E-2
MEAN_MOTION_DOT = .151238E-2
MEAN_MOTION_DDOT = 0

CCSDS_OMM_VERS = 2.0
CREATION_DATE  = 
ORIGINATOR     = 

OBJECT_NAME    = 1998-067XW
OBJECT_ID      = 1998-067XW
CENTER_NAME    = EARTH
REF_FRAME      = TEME
TIME_SYSTEM    = UTC
MEAN_ELEMENT_THEORY = SGP/SGP4

EPOCH          = 2026-02-05T21:29:21.041952
MEAN_MOTION    = 15.61042610
ECCENTRICITY   = .0000961
INCLINATION    = 51.6260
RA_OF_ASC_NODE = 226.5943
ARG_OF_PERICENTER = 217.3014
MEAN_ANOMALY   = 142.7913

EPHEMERIS_TYPE = 0
CLASSIFICATION_TYPE = U
NORAD_CAT_ID   = 66910
ELEMENT_SET_NO = 999
REV_AT_EPOCH   = 1020
BSTAR          = .13943E-2
MEAN_MOTION_DOT = .120903E-2
MEAN_MOTION_DDOT = 0

CCSDS_OMM_VERS = 2.0
CREATION_DATE  = 
ORIGINATOR     = 

OBJECT_NAME    = 1998-067XX
OBJECT_ID      = 1998-067XX
CENTER_NAME    = EARTH
REF_FRAME      = TEME
TIME_SYSTEM    = UTC
MEAN_ELEMENT_THEORY = SGP/SGP4

EPOCH          = 2026-02-05T18:58:50.474208
MEAN_MOTION    = 15.63462048
ECCENTRICITY   = .0002448
INCLINATION    = 51.6254
RA_OF_ASC_NODE = 226.6457
ARG_OF_PERICENTER = 245.3472
MEAN_ANOMALY   = 114.7268

EPHEMERIS_TYPE = 0
CLASSIFICATION_TYPE = U
NORAD_CAT_ID   = 66911
ELEMENT_SET_NO = 999
REV_AT_EPOCH   = 1018
BSTAR          = .17370848E-2
MEAN_MOTION_DOT = .166621E-2
MEAN_MOTION_DDOT = 0

CCSDS_OMM_VERS = 2.0
CREATION_DATE  = 
ORIGINATOR     = 

OBJECT_NAME    = 1998-067XY
OBJECT_ID      = 1998-067XY
CENTER_NAME    = EARTH
REF_FRAME      = TEME
TIME_SYSTEM    = UTC
MEAN_ELEMENT_THEORY = SGP/SGP4

EPOCH          = 2026-02-05T18:15:19.973376
MEAN_MOTION    = 15.58296587
ECCENTRICITY   = .00014957
INCLINATION    = 51.6276
RA_OF_ASC_NODE = 227.9509
ARG_OF_PERICENTER = 152.5186
MEAN_ANOMALY   = 207.5886

EPHEMERIS_TYPE = 0
CLASSIFICATION_TYPE = U
NORAD_CAT_ID   = 66912
ELEMENT_SET_NO = 999
REV_AT_EPOCH   = 1016
BSTAR          = .11778499E-2
MEAN_MOTION_DOT = .91548E-3
MEAN_MOTION_DDOT = 0

